OSCAR 7 (AO-7)          
1 07530U 74089B   20048.83085951 -.00000020  00000-0  15802-3 0  9998
2 07530 101.7838  19.3237 0011903 236.0349 238.1185 12.53642165 71114
UOSAT 2 (UO-11)         
1 14781U 84021B   20048.99881891  .00000055  00000-0  12781-4 0  9996
2 14781  97.5968  66.9235 0007276 230.7050 129.3520 14.83142762934979
LUSAT (LO-19)           
1 20442U 90005G   20049.41166637 -.00000022  00000-0  84886-5 0  9999
2 20442  98.6787 356.3468 0012340 143.9849 216.2168 14.32944954571422
ITAMSAT (IO-26)         
1 22826U 93061D   20048.97662324 -.00000004  00000-0  16473-4 0  9992
2 22826  98.9152  48.3685 0008956   3.1190 357.0046 14.30412799377071
RADIO ROSTO (RS-15)     
1 23439U 94085A   20048.68069402 -.00000051  00000-0 -23446-3 0  9996
2 23439  64.8159  81.5603 0146409  65.3611 296.2483 11.27568780 35406
JAS-2 (FO-29)           
1 24278U 96046B   20049.37848978 -.00000024  00000-0  14095-4 0  9997
2 24278  98.5673 175.0272 0349712 326.0050  31.9118 13.53095503160890
TECHSAT 1B (GO-32)      
1 25397U 98043D   20048.77436276 -.00000012  00000-0  14162-4 0  9998
2 25397  98.7165 351.2706 0002264  66.8906 293.2511 14.23679442122603
ISS (ZARYA)             
1 25544U 98067A   20049.56562457  .00000049  00000-0  90385-5 0  9998
2 25544  51.6437 220.3415 0004752 287.7894 146.1861 15.49168358213472
PCSAT (NO-44)           
1 26931U 01043C   20048.56955469 -.00000048  00000-0  13339-4 0  9998
2 26931  67.0507  94.3486 0006532 263.4379  96.5978 14.30567250959787
SAUDISAT 1C (SO-50)     
1 27607U 02058C   20049.07358354 -.00000058  00000-0  12541-4 0  9998
2 27607  64.5561  22.4193 0062771 207.2850 152.4951 14.75609681923096
CUTE-1 (CO-55)          
1 27844U 03031E   20048.77900844  .00000037  00000-0  36473-4 0  9992
2 27844  98.6843  58.3219 0010645  49.3465 310.8637 14.22221247862944
CUBESAT XI-IV (CO-57)   
1 27848U 03031J   20048.84107038  .00000032  00000-0  34246-4 0  9999
2 27848  98.6914  58.9269 0010665  60.3033 299.9205 14.21810398862807
MOZHAYETS 4 (RS-22)     
1 27939U 03042A   20049.53421632  .00000100  00000-0  26548-4 0  9990
2 27939  98.0702 186.0886 0013089  18.7602 341.4081 14.66837597876435
CUBESAT XI-V            
1 28895U 05043F   20048.83005751  .00000074  00000-0  23029-4 0  9998
2 28895  97.9889 188.7063 0015579 303.4088  56.5624 14.63737876763196
CUTE-1.7+APD II (CO-65) 
1 32785U 08021C   20049.46845188  .00000160  00000-0  22791-4 0  9997
2 32785  97.5647  42.8230 0013352 164.8815 195.2804 14.88418201640096
DELFI-C3 (DO-64)        
1 32789U 08021G   20049.13401931  .00001265  00000-0  87361-4 0  9990
2 32789  97.4350  96.0579 0012205  16.2476 343.9141 15.07457965643783
SEEDS II (CO-66)        
1 32791U 08021J   20049.54156418  .00000380  00000-0  43794-4 0  9994
2 32791  97.5362  49.0263 0014301 137.4371 222.7959 14.90973332640596
YUBILEINY (RS-30)       
1 32953U 08025A   20049.47628830  .00000037  00000-0  19437-3 0  9997
2 32953  82.5072 352.5253 0018883 319.2318  40.7349 12.43094366532722
KKS-1 (KISEKI)          
1 33499U 09002H   20048.81083086  .00000076  00000-0  19228-4 0  9996
2 33499  98.3304 260.0654 0009813 143.1324 217.0560 14.75504314594798
SWISSCUBE               
1 35932U 09051B   20048.71066765  .00000095  00000-0  32416-4 0  9993
2 35932  98.6033 227.1396 0008452 132.6103 227.5808 14.56358263552252
BEESAT-1                
1 35933U 09051C   20049.45515899  .00000097  00000-0  32798-4 0  9998
2 35933  98.6044 229.7520 0006524 140.6221 219.5451 14.56438695552512
ITUPSAT1                
1 35935U 09051E   20049.03606327  .00000073  00000-0  28067-4 0  9999
2 35935  98.6153 229.5350 0008814 142.2606 217.9210 14.55589091552187
XIWANG-1 (HOPE-1)       
1 36122U 09072B   20049.16646144 -.00000052  00000-0 -25063-4 0  9998
2 36122 100.0849  45.1459 0007868 138.1868 221.9890 13.16353274489041
JUGNU                   
1 37839U 11058B   20048.85361403  .00000345  00000-0  41780-4 0  9995
2 37839  19.9611 294.1318 0019061 138.8495 298.0005 14.12671829431713
SRMSAT                  
1 37841U 11058D   20049.26816317  .00000308  00000-0  24006-4 0  9994
2 37841  19.9733 353.4547 0011770   4.4909 146.8453 14.10649632431274
M-CUBED & EXP-1 PRIME   
1 37855U 11061F   20049.33802410  .00001303  00000-0  72000-4 0  9993
2 37855 101.7260  75.8119 0171870  71.4102 290.5691 15.06005372453594
STRAND-1                
1 39090U 13009E   20049.16025620  .00000020  00000-0  22064-4 0  9991
2 39090  98.4666 255.7354 0008065 284.5676  75.4615 14.35118081365453
SOMP                    
1 39134U 13015E   20049.04572462  .00000785  00000-0  44370-4 0  9997
2 39134  64.8635 308.4428 0037558 263.5758  96.1092 15.20747433377748
BEESAT-3                
1 39135U 13015F   20048.88305510  .00000808  00000-0  48673-4 0  9993
2 39135  64.8685 330.7455 0045639 265.1348  94.4566 15.17935582377303
BEESAT-2                
1 39136U 13015G   20048.88177176  .00000461  00000-0  32818-4 0  9998
2 39136  64.8703 335.3304 0030026 278.9189  80.8538 15.17333090376828
ZACUBE-1 (TSHEPISOSAT)  
1 39417U 13066B   20049.05480330  .00000172  00000-0  28076-4 0  9995
2 39417  97.5629  53.7951 0057769 313.7685  45.8756 14.81222806337216
GOMX-1                  
1 39430U 13066Q   20049.54467040  .00000066  00000-0  21070-4 0  9996
2 39430  97.7789 355.4023 0150130 202.0185 157.4507 14.59348434332314
CUBEBUG-2 (LO-74)       
1 39440U 13066AA  20049.02218336  .00000194  00000-0  33932-4 0  9994
2 39440  97.6205  38.2538 0080516  12.3784 347.9379 14.75959144336019
FUNCUBE-1 (AO-73)       
1 39444U 13066AE  20048.91878085  .00000217  00000-0  33051-4 0  9996
2 39444  97.5587  55.8224 0056762 306.8666  52.7351 14.82064015336101
UWE-3                   
1 39446U 13066AG  20049.55528109  .00000195  00000-0  32522-4 0  9995
2 39446  97.5917  45.9473 0069503 342.2407  17.6376 14.78494930335441
SPROUT                  
1 39770U 14029E   20049.35835046  .00000495  00000-0  60526-4 0  9992
2 39770  97.8894 156.2333 0009175  10.1714 349.9676 14.87613064311203
UNISAT-6                
1 40012U 14033C   20048.85065848  .00000119  00000-0  25032-4 0  9993
2 40012  97.7264 269.4926 0059057  31.0147 329.4527 14.74068800304652
DUCHIFAT-1              
1 40021U 14033M   20049.27533353  .00000410  00000-0  47529-4 0  9990
2 40021  97.9369 339.8317 0012234 329.8788  30.1725 14.90813205307981
QB50P1                  
1 40025U 14033R   20048.70442490  .00000158  00000-0  22802-4 0  9998
2 40025  97.9129 333.0576 0012028 343.4222  16.6600 14.89070976307123
NUDT-PHONESAT           
1 40900U 15049B   20049.49775206  .00001426  00000-0  62374-4 0  9996
2 40900  97.4351  61.5051 0013963  50.0329 102.6058 15.23627250244929
ZDPS 2A                 
1 40901U 15049C   20049.46139512  .00000519  00000-0  28729-4 0  9996
2 40901  97.4630  56.8122 0014935  72.4318  85.9418 15.18074101244368
ZDPS 2B                 
1 40902U 15049D   20049.50595522  .00000666  00000-0  35980-4 0  9999
2 40902  97.4601  54.1757 0014965  70.0760  81.2303 15.18014492244347
XW-2A                   
1 40903U 15049E   20049.38527985  .00001190  00000-0  29263-4 0  9994
2 40903  97.3071  98.1663 0012857 346.8593  69.1927 15.42635012247960
KAITUO 1A               
1 40904U 15049F   20049.51063184  .00000112  00000-0  93547-5 0  9996
2 40904  97.4754  52.4463 0016110  80.1177  74.7862 15.15597236244077
2015-049G               
1 40905U 15049G   20049.49750675 -.00000022  00000-0  23673-5 0  9996
2 40905  97.4815  49.7442 0017198  76.3986  40.2117 15.14459960243928
XW-2C                   
1 40906U 15049H   20049.51918097  .00000430  00000-0  25851-4 0  9995
2 40906  97.4758  52.6617 0016377  71.1075  47.0896 15.15930833244083
XW-2D                   
1 40907U 15049J   20049.32201573  .00000644  00000-0  36781-4 0  9990
2 40907  97.4738  52.1584 0015746  69.4577 350.5221 15.16146551244076
LILACSAT-2              
1 40908U 15049K   20048.15785711 -.00000064  00000-0  96883-7 0  9991
2 40908  97.4877  49.5313 0017491  81.2415 337.4209 15.13953311243642
XW-2F                   
1 40910U 15049M   20049.52315603  .00000611  00000-0  33586-4 0  9990
2 40910  97.4679  54.7442 0016099  60.3467  98.0341 15.17708204244140
XW-2B                   
1 40911U 15049N   20049.50858442  .00000285  00000-0  18256-4 0  9996
2 40911  97.4757  53.0290 0015572  70.0789  46.8458 15.16071827243996
KAITUO 1B               
1 40912U 15049P   20049.50619656  .00000742  00000-0  37502-4 0  9992
2 40912  97.4511  58.7395 0015962  42.6279 108.4373 15.20072637244497
TIANWANG 1C (TW-1C)     
1 40926U 15051B   20049.37590485  .00011882  00000-0  14055-3 0  9997
2 40926  97.1039 100.6260 0007050 164.8854 255.5159 15.61399391248266
TIANWANG 1A (TW-1A)     
1 40928U 15051D   20049.57854225  .00001763  00000-0  43305-4 0  9994
2 40928  97.1226  80.2896 0008977 262.9647 248.7534 15.41970215246899
LAPAN-A2                
1 40931U 15052B   20047.50314939  .00000440  00000-0 -27845-4 0  9996
2 40931   5.9959 125.0758 0013548 350.9845   9.0050 14.76624032237202
E-ST@R-II               
1 41459U 16025D   20049.48793712  .00001718  00000-0  91074-4 0  9995
2 41459  98.0969 153.3369 0165084 255.1747 103.1143 15.06048886209382
AAUSAT 4                
1 41460U 16025E   20049.27207270  .00001494  00000-0  77859-4 0  9999
2 41460  98.0940 155.0347 0154166 246.0811 112.4205 15.08184566209524
NUSAT-1 (FRESCO)        
1 41557U 16033B   20049.39776765  .00000988  00000-0  39100-4 0  9992
2 41557  97.4064 140.4287 0014547 147.4144 212.7997 15.27736718207447
BEESAT-4                
1 41619U 16040W   20049.12699326  .00001042  00000-0  46279-4 0  9994
2 41619  97.3364 111.4276 0009751 238.8317 121.1964 15.23689156191079
CAS-2T & KS-1Q          
1 41847U 16066G   20048.69673918  .00000031  00000-0  15710-4 0  9998
2 41847  98.6733  97.8873 0365039 228.5652 128.3642 14.38040718172068
NAYIF-1 (EO-88)         
1 42017U 17008BX  20049.11751200  .00001126  00000-0  46399-4 0  9997
2 42017  97.3747 118.3763 0007084  39.9743 320.2016 15.26145690167193
MAX VALIER SAT          
1 42778U 17036P   20049.46349554  .00000678  00000-0  32267-4 0  9995
2 42778  97.3226 106.3214 0013967  86.0008 274.2825 15.22402211147477
RADFXSAT (FOX-1B)       
1 43017U 17073E   20049.42812051  .00000484  00000-0  42449-4 0  9994
2 43017  97.7266 326.2778 0258862  81.4257 281.6192 14.78797727121425
FOX-1D (AO-92)          
1 43137U 18004AC  20049.19777058  .00000806  00000-0  36313-4 0  9994
2 43137  97.4594 121.1133 0010746 114.8232 245.4124 15.23884544116722
ES'HAIL 2               
1 43700U 18090A   20049.27271638  .00000127  00000-0  00000+0 0  9992
2 43700   0.0106 113.5131 0002184 253.7525 264.3605  1.00271840  4746
FOX-1CLIFF (AO-95)      
1 43770U 18099N   20048.76080292  .00000317  00000-0  34284-4 0  9992
2 43770  97.7193 122.1774 0013353 236.4173 123.5773 14.94911168 65883
ITASAT 1                
1 43786U 18099AE  20048.71859764 -.00000251  00000-0 -17495-4 0  9996
2 43786  97.7205 122.4688 0014178 230.4653 129.5316 14.95259011 65897
JY1SAT (JO-97)          
1 43803U 18099AX  20049.28205449  .00000690  00000-0  67594-4 0  9994
2 43803  97.7165 122.8728 0014112 228.2249 131.7767 14.95421035 65976
PSAT2 (NO-104)          
1 44354U 19036R   20048.42162200  .00005208  00000-0  74591-4 0  9995
2 44354  28.5298  94.1398 0373994 100.5747 263.7187 15.01105384 35593
BRICSAT2 (NO-103)       
1 44355U 19036S   20049.18090921  .00011914  00000-0  17220-3 0  9996
2 44355  28.5303  85.6919 0360828 114.3255 249.5445 15.04388612 35740
JAISAT-1                
1 44419U 19038F   20048.83229538  .00000617  00000-0  38962-4 0  9993
2 44419  97.5231  11.9765 0021506 182.2082 177.9057 15.12571933 34366
DUCHIFAT-3              
1 44854U 19089C   20049.46310797  .00000191  00000-0  21929-4 0  9992
2 44854  36.9669  87.4228 0007437 176.2161 183.8631 14.98971620 10280
